[{"ADDRESS":"103 Tower Cir","CITY":"Terrell","STATE":"TX","ZIP":"75160","SOLD PRICE":40000,"LOT AREA":4617,"LOT ACREAGE":0.11,"PRICE PER ACRE":377388,"LATITUDE":"32.7463801","LONGITUDE":"-96.2890956","distance":0},{"ADDRESS":"103 Brooks Dr","CITY":"Terrell","STATE":"TX","ZIP":"75160","SOLD PRICE":32000,"LOT AREA":4966,"LOT ACREAGE":0.11,"PRICE PER ACRE":280693,"LATITUDE":"32.7332812","LONGITUDE":"-96.2922575","distance":0},{"ADDRESS":"0 1st","CITY":"Terrell","STATE":"TX","ZIP":"75160","SOLD PRICE":24900,"LOT AREA":4966,"LOT ACREAGE":0.11,"PRICE PER ACRE":218414,"LATITUDE":"32.740354","LONGITUDE":"-96.285478","distance":0},{"ADDRESS":"105 Mitchell Cir","CITY":"Terrell","STATE":"TX","ZIP":"75160","SOLD PRICE":33900,"LOT AREA":5009,"LOT ACREAGE":0.11,"PRICE PER ACRE":294806,"LATITUDE":"32.7336956","LONGITUDE":"-96.2927275","distance":0},{"ADDRESS":"S Ann St","CITY":"Terrell","STATE":"TX","ZIP":"75160","SOLD PRICE":16900,"LOT AREA":5750,"LOT ACREAGE":0.13,"PRICE PER ACRE":128029,"LATITUDE":"32.732818","LONGITUDE":"-96.283143","distance":0},{"ADDRESS":"301 Frazier St","CITY":"Terrell","STATE":"TX","ZIP":"75160","SOLD PRICE":22300,"LOT AREA":6055,"LOT ACREAGE":0.14,"PRICE PER ACRE":160427,"LATITUDE":"32.7324849","LONGITUDE":"-96.286931","distance":0},{"ADDRESS":"0 Melody Cir","CITY":"Kaufman","STATE":"TX","ZIP":"75142","SOLD PRICE":15000,"LOT AREA":6621,"LOT ACREAGE":0.15,"PRICE PER ACRE":98686,"LATITUDE":"32.580747","LONGITUDE":"-96.287664","distance":0},{"ADDRESS":"1105 S Frances","CITY":"Terrell","STATE":"TX","ZIP":"75160","SOLD PRICE":17900,"LOT AREA":6882,"LOT ACREAGE":0.16,"PRICE PER ACRE":113299,"LATITUDE":"32.7247019","LONGITUDE":"-96.2801129","distance":0},{"ADDRESS":"1103 S Frances St","CITY":"Terrell","STATE":"TX","ZIP":"75160","SOLD PRICE":17900,"LOT AREA":6882,"LOT ACREAGE":0.16,"PRICE PER ACRE":113299,"LATITUDE":"32.7248329","LONGITUDE":"-96.2800309","distance":0},{"ADDRESS":"304 Runnells St","CITY":"Terrell","STATE":"TX","ZIP":"75160","SOLD PRICE":19999,"LOT AREA":7013,"LOT ACREAGE":0.16,"PRICE PER ACRE":124220,"LATITUDE":"32.7288083","LONGITUDE":"-96.2706416","distance":0},{"ADDRESS":"108 S 4th St","CITY":"Crandall","STATE":"TX","ZIP":"75114","SOLD PRICE":40000,"LOT AREA":7231,"LOT ACREAGE":0.17,"PRICE PER ACRE":240963,"LATITUDE":"32.627526","LONGITUDE":"-96.454765","distance":0},{"ADDRESS":"410 N 1st St","CITY":"Crandall","STATE":"TX","ZIP":"75114","SOLD PRICE":6500,"LOT AREA":7248,"LOT ACREAGE":0.17,"PRICE PER ACRE":39065,"LATITUDE":"32.629092","LONGITUDE":"-96.459093","distance":0},{"ADDRESS":"1212 S Rockwall Ave","CITY":"Terrell","STATE":"TX","ZIP":"75160","SOLD PRICE":29000,"LOT AREA":7449,"LOT ACREAGE":0.17,"PRICE PER ACRE":169585,"LATITUDE":"32.7244666","LONGITUDE":"-96.2831716","distance":0},{"ADDRESS":"912 Crenshaw St","CITY":"Terrell","STATE":"TX","ZIP":"75160","SOLD PRICE":27000,"LOT AREA":7492,"LOT ACREAGE":0.17,"PRICE PER ACRE":156983,"LATITUDE":"32.7261821","LONGITUDE":"-96.2873567","distance":0},{"ADDRESS":"205 N 2nd St","CITY":"Crandall","STATE":"TX","ZIP":"75114","SOLD PRICE":39000,"LOT AREA":7492,"LOT ACREAGE":0.17,"PRICE PER ACRE":226754,"LATITUDE":"32.6295132","LONGITUDE":"-96.4580667","distance":0},{"ADDRESS":"504 N Adelaide St","CITY":"Terrell","STATE":"TX","ZIP":"75160","SOLD PRICE":37500,"LOT AREA":7492,"LOT ACREAGE":0.17,"PRICE PER ACRE":218033,"LATITUDE":"32.740443","LONGITUDE":"-96.275227","distance":0},{"ADDRESS":"0 Frazier","CITY":"Terrell","STATE":"TX","ZIP":"75160","SOLD PRICE":20000,"LOT AREA":7579,"LOT ACREAGE":0.17,"PRICE PER ACRE":114949,"LATITUDE":"32.732672","LONGITUDE":"-96.286722","distance":0},{"ADDRESS":"801 S Adelaide St","CITY":"Terrell","STATE":"TX","ZIP":"75160","SOLD PRICE":20000,"LOT AREA":7884,"LOT ACREAGE":0.18,"PRICE PER ACRE":110502,"LATITUDE":"32.7298147","LONGITUDE":"-96.2769871","distance":0},{"ADDRESS":"803 S Adelaide St","CITY":"Terrell","STATE":"TX","ZIP":"75160","SOLD PRICE":19000,"LOT AREA":7884,"LOT ACREAGE":0.18,"PRICE PER ACRE":104977,"LATITUDE":"32.7296449","LONGITUDE":"-96.2770175","distance":0},{"ADDRESS":"707 S Hattie","CITY":"Terrell","STATE":"TX","ZIP":"75160","SOLD PRICE":24900,"LOT AREA":8015,"LOT ACREAGE":0.18,"PRICE PER ACRE":135327,"LATITUDE":"32.7312468","LONGITUDE":"-96.2824199","distance":0},{"ADDRESS":"0 Cedar","CITY":"Forney","STATE":"TX","ZIP":"75126","SOLD PRICE":80000,"LOT AREA":8668,"LOT ACREAGE":0.2,"PRICE PER ACRE":402030,"LATITUDE":"32.746567","LONGITUDE":"-96.46855","distance":0},{"ADDRESS":"0 MCGRAW St","CITY":"Forney","STATE":"TX","ZIP":"75126","SOLD PRICE":37000,"LOT AREA":8843,"LOT ACREAGE":0.2,"PRICE PER ACRE":182259,"LATITUDE":"32.753753","LONGITUDE":"-96.467139","distance":0},{"ADDRESS":"0 MCGRAW St","CITY":"Forney","STATE":"TX","ZIP":"75126","SOLD PRICE":37000,"LOT AREA":8930,"LOT ACREAGE":0.21,"PRICE PER ACRE":180484,"LATITUDE":"32.753629","LONGITUDE":"-96.467292","distance":0},{"ADDRESS":"0 N 1st","CITY":"Crandall","STATE":"TX","ZIP":"75114","SOLD PRICE":24900,"LOT AREA":9409,"LOT ACREAGE":0.22,"PRICE PER ACRE":115277,"LATITUDE":"32.629071","LONGITUDE":"-96.458603","distance":0},{"ADDRESS":"0 S Hattie","CITY":"Terrell","STATE":"TX","ZIP":"75160","SOLD PRICE":28000,"LOT AREA":9801,"LOT ACREAGE":0.23,"PRICE PER ACRE":124444,"LATITUDE":"32.730324","LONGITUDE":"-96.283191","distance":0},{"ADDRESS":"0 Washington","CITY":"Terrell","STATE":"TX","ZIP":"75160","SOLD PRICE":32000,"LOT AREA":10000,"LOT ACREAGE":0.23,"PRICE PER ACRE":139392,"LATITUDE":"32.741884","LONGITUDE":"-96.284176","distance":0},{"ADDRESS":"312 Splitrail Dr","CITY":"Mabank","STATE":"TX","ZIP":"75143","SOLD PRICE":19500,"LOT AREA":10411,"LOT ACREAGE":0.24,"PRICE PER ACRE":81589,"LATITUDE":"32.3938889","LONGITUDE":"-96.1686874","distance":0},{"ADDRESS":"ANTHONY","CITY":"KAUFMAN","STATE":"TX","ZIP":"75142","SOLD PRICE":10000,"LOT AREA":11500,"LOT ACREAGE":0.26,"PRICE PER ACRE":37878,"LATITUDE":"32.58076","LONGITUDE":"-96.298521","distance":0},{"ADDRESS":"1011 S Medora St","CITY":"Terrell","STATE":"TX","ZIP":"75160","SOLD PRICE":40000,"LOT AREA":12153,"LOT ACREAGE":0.28,"PRICE PER ACRE":143372,"LATITUDE":"32.726203","LONGITUDE":"-96.280888","distance":0},{"ADDRESS":"0 Sage","CITY":"Terrell","STATE":"TX","ZIP":"75160","SOLD PRICE":49900,"LOT AREA":12750,"LOT ACREAGE":0.29,"PRICE PER ACRE":170482,"LATITUDE":"32.737635","LONGITUDE":"-96.28733","distance":0},{"ADDRESS":"206 Pecan St","CITY":"Terrell","STATE":"TX","ZIP":"75160","SOLD PRICE":39900,"LOT AREA":12807,"LOT ACREAGE":0.29,"PRICE PER ACRE":135710,"LATITUDE":"32.748594","LONGITUDE":"-96.278098","distance":0},{"ADDRESS":"519 E Kempner St","CITY":"Mabank","STATE":"TX","ZIP":"75147","SOLD PRICE":25000,"LOT AREA":12981,"LOT ACREAGE":0.3,"PRICE PER ACRE":83892,"LATITUDE":"32.3672157","LONGITUDE":"-96.0929291","distance":0},{"ADDRESS":"801 Warren St","CITY":"Terrell","STATE":"TX","ZIP":"75160","SOLD PRICE":30000,"LOT AREA":13939,"LOT ACREAGE":0.32,"PRICE PER ACRE":93751,"LATITUDE":"32.742523","LONGITUDE":"-96.290839","distance":0},{"ADDRESS":"19000 Tennis Court Dr","CITY":"Kemp","STATE":"TX","ZIP":"75143","SOLD PRICE":125000,"LOT AREA":14418,"LOT ACREAGE":0.33,"PRICE PER ACRE":377653,"LATITUDE":"32.377884","LONGITUDE":"-96.1657246","distance":0},{"ADDRESS":"303 S Frances St","CITY":"Terrell","STATE":"TX","ZIP":"75160","SOLD PRICE":39900,"LOT AREA":14941,"LOT ACREAGE":0.34,"PRICE PER ACRE":116327,"LATITUDE":"32.7341446","LONGITUDE":"-96.2784297","distance":0},{"ADDRESS":"0 County Road 4052","CITY":"Kemp","STATE":"TX","ZIP":"75143","SOLD PRICE":13500,"LOT AREA":15769,"LOT ACREAGE":0.36,"PRICE PER ACRE":37292,"LATITUDE":"32.408456","LONGITUDE":"-96.250506","distance":0},{"ADDRESS":"17888 Country Club Dr","CITY":"Kemp","STATE":"TX","ZIP":"75143","SOLD PRICE":48500,"LOT AREA":17990,"LOT ACREAGE":0.41,"PRICE PER ACRE":117435,"LATITUDE":"32.387651","LONGITUDE":"-96.164948","distance":0},{"ADDRESS":"220 Cape Shore Dr","CITY":"Mabank","STATE":"TX","ZIP":"75143","SOLD PRICE":40000,"LOT AREA":18600,"LOT ACREAGE":0.43,"PRICE PER ACRE":93677,"LATITUDE":"32.389914","LONGITUDE":"-96.159127","distance":0},{"ADDRESS":"200 S Park St","CITY":"Terrell","STATE":"TX","ZIP":"75160","SOLD PRICE":52000,"LOT AREA":19079,"LOT ACREAGE":0.44,"PRICE PER ACRE":118723,"LATITUDE":"32.730247","LONGITUDE":"-96.284519","distance":0},{"ADDRESS":"327 Walnut St","CITY":"Terrell","STATE":"TX","ZIP":"75160","SOLD PRICE":37500,"LOT AREA":19210,"LOT ACREAGE":0.44,"PRICE PER ACRE":85034,"LATITUDE":"32.754162","LONGITUDE":"-96.2849225","distance":0},{"ADDRESS":"6709 FM 1390","CITY":"Kaufman","STATE":"TX","ZIP":"75142","SOLD PRICE":28500,"LOT AREA":20909,"LOT ACREAGE":0.48,"PRICE PER ACRE":59374,"LATITUDE":"32.556965","LONGITUDE":"-96.406735","distance":0},{"ADDRESS":"13012 Fairway Dr","CITY":"Kemp","STATE":"TX","ZIP":"75143","SOLD PRICE":44500,"LOT AREA":22825,"LOT ACREAGE":0.52,"PRICE PER ACRE":84925,"LATITUDE":"32.393141","LONGITUDE":"-96.165436","distance":0},{"ADDRESS":"201 Cape Shr","CITY":"Mabank","STATE":"TX","ZIP":"75143","SOLD PRICE":119000,"LOT AREA":26223,"LOT ACREAGE":0.6,"PRICE PER ACRE":197675,"LATITUDE":"32.390595","LONGITUDE":"-96.15545","distance":0},{"ADDRESS":"401 Chappel St","CITY":"Terrell","STATE":"TX","ZIP":"75160","SOLD PRICE":75000,"LOT AREA":27878,"LOT ACREAGE":0.64,"PRICE PER ACRE":117189,"LATITUDE":"32.730823","LONGITUDE":"-96.264563","distance":0},{"ADDRESS":"0 San Jacinto","CITY":"Terrell","STATE":"TX","ZIP":"75160","SOLD PRICE":25000,"LOT AREA":30492,"LOT ACREAGE":0.7,"PRICE PER ACRE":35714,"LATITUDE":"32.742405","LONGITUDE":"-96.271931","distance":0},{"ADDRESS":"0 Country Club Dr","CITY":"Kemp","STATE":"TX","ZIP":"75143","SOLD PRICE":85000,"LOT AREA":31189,"LOT ACREAGE":0.72,"PRICE PER ACRE":118715,"LATITUDE":"32.38537","LONGITUDE":"-96.164334","distance":0},{"ADDRESS":"204 Catherine St","CITY":"Terrell","STATE":"TX","ZIP":"75160","SOLD PRICE":49500,"LOT AREA":31625,"LOT ACREAGE":0.73,"PRICE PER ACRE":68181,"LATITUDE":"32.7350678","LONGITUDE":"-96.2780525","distance":0},{"ADDRESS":"97 Debra St","CITY":"Kaufman","STATE":"TX","ZIP":"75142","SOLD PRICE":29500,"LOT AREA":34848,"LOT ACREAGE":0.8,"PRICE PER ACRE":36875,"LATITUDE":"32.5950344","LONGITUDE":"-96.2945959","distance":0},{"ADDRESS":"123 Oakbend Trl","CITY":"Mabank","STATE":"TX","ZIP":"75147","SOLD PRICE":42500,"LOT AREA":37462,"LOT ACREAGE":0.86,"PRICE PER ACRE":49418,"LATITUDE":"32.381674","LONGITUDE":"-96.133171","distance":0},{"ADDRESS":"0 HWY 274","CITY":"Kemp","STATE":"TX","ZIP":"75143","SOLD PRICE":23900,"LOT AREA":42732,"LOT ACREAGE":0.98,"PRICE PER ACRE":24363,"LATITUDE":"32.382478","LONGITUDE":"-96.24198","distance":0},{"ADDRESS":"Hwy 274","CITY":"Kemp","STATE":"TX","ZIP":"75143","SOLD PRICE":23900,"LOT AREA":43255,"LOT ACREAGE":0.99,"PRICE PER ACRE":24069,"LATITUDE":"32.381078","LONGITUDE":"-96.241984","distance":0},{"ADDRESS":"15690 Wiser Rd","CITY":"Forney","STATE":"TX","ZIP":"75126","SOLD PRICE":80000,"LOT AREA":43560,"LOT ACREAGE":1,"PRICE PER ACRE":80000,"LATITUDE":"32.7029496","LONGITUDE":"-96.506648","distance":0},{"ADDRESS":"15680 Wiser Rd","CITY":"Forney","STATE":"TX","ZIP":"75126","SOLD PRICE":80000,"LOT AREA":43560,"LOT ACREAGE":1,"PRICE PER ACRE":80000,"LATITUDE":"32.7026009","LONGITUDE":"-96.506009","distance":0},{"ADDRESS":"14999 County Road 4060","CITY":"Scurry","STATE":"TX","ZIP":"75158","SOLD PRICE":32500,"LOT AREA":43560,"LOT ACREAGE":1,"PRICE PER ACRE":32500,"LATITUDE":"32.434069","LONGITUDE":"-96.331445","distance":0},{"ADDRESS":"0 FM 987","CITY":"Kaufman","STATE":"TX","ZIP":"75142","SOLD PRICE":30000,"LOT AREA":43560,"LOT ACREAGE":1,"PRICE PER ACRE":30000,"LATITUDE":"32.59757","LONGITUDE":"-96.31696","distance":0},{"ADDRESS":"Hwy 274","CITY":"Kemp","STATE":"TX","ZIP":"75143","SOLD PRICE":30000,"LOT AREA":43560,"LOT ACREAGE":1,"PRICE PER ACRE":30000,"LATITUDE":"32.385789","LONGITUDE":"-96.241705","distance":0},{"ADDRESS":"18448 Hwy 274","CITY":"Kemp","STATE":"TX","ZIP":"75143","SOLD PRICE":23900,"LOT AREA":43560,"LOT ACREAGE":1,"PRICE PER ACRE":23900,"LATITUDE":"32.380718","LONGITUDE":"-96.2420541","distance":0},{"ADDRESS":"CR 353","CITY":"Terrell","STATE":"TX","ZIP":"75161","SOLD PRICE":35000,"LOT AREA":43560,"LOT ACREAGE":1,"PRICE PER ACRE":35000,"LATITUDE":"32.765704","LONGITUDE":"-96.192173","distance":0},{"ADDRESS":"16143 Lakehurst Dr","CITY":"Forney","STATE":"TX","ZIP":"75126","SOLD PRICE":89000,"LOT AREA":43560,"LOT ACREAGE":1,"PRICE PER ACRE":89000,"LATITUDE":"32.7950266","LONGITUDE":"-96.422417","distance":0},{"ADDRESS":"0 Page","CITY":"Scurry","STATE":"TX","ZIP":"75158","SOLD PRICE":40000,"LOT AREA":43560,"LOT ACREAGE":1,"PRICE PER ACRE":40000,"LATITUDE":"32.521518","LONGITUDE":"-96.387759","distance":0},{"ADDRESS":"0 Rose Hill Rd","CITY":"Terrell","STATE":"TX","ZIP":"75160","SOLD PRICE":17000,"LOT AREA":43560,"LOT ACREAGE":1,"PRICE PER ACRE":17000,"LATITUDE":"32.723982","LONGITUDE":"-96.284373","distance":0},{"ADDRESS":"5111 Holly St","CITY":"Crandall","STATE":"TX","ZIP":"75114","SOLD PRICE":70000,"LOT AREA":43560,"LOT ACREAGE":1,"PRICE PER ACRE":70000,"LATITUDE":"32.605081","LONGITUDE":"-96.424336","distance":0},{"ADDRESS":"6088 Haley Way","CITY":"Crandall","STATE":"TX","ZIP":"75114","SOLD PRICE":62500,"LOT AREA":43560,"LOT ACREAGE":1,"PRICE PER ACRE":62500,"LATITUDE":"32.6025892","LONGITUDE":"-96.4226493","distance":0},{"ADDRESS":"3965 FM ROAD 1836","CITY":"Kaufman","STATE":"TX","ZIP":"75142","SOLD PRICE":53000,"LOT AREA":43560,"LOT ACREAGE":1,"PRICE PER ACRE":53000,"LATITUDE":"32.5686344","LONGITUDE":"-96.2835163","distance":0},{"ADDRESS":"FM Rd 2451","CITY":"Rosser","STATE":"TX","ZIP":"75157","SOLD PRICE":25000,"LOT AREA":43560,"LOT ACREAGE":1,"PRICE PER ACRE":25000,"LATITUDE":"32.462565","LONGITUDE":"-96.45385","distance":0},{"ADDRESS":"","CITY":"Kemp","STATE":"TX","ZIP":"75143","SOLD PRICE":48930,"LOT AREA":44165,"LOT ACREAGE":1.01,"PRICE PER ACRE":48260,"LATITUDE":"32.376431","LONGITUDE":"-96.222707","distance":0},{"ADDRESS":"0 Meandering Way","CITY":"Combine","STATE":"TX","ZIP":"75159","SOLD PRICE":54900,"LOT AREA":44562,"LOT ACREAGE":1.02,"PRICE PER ACRE":53666,"LATITUDE":"32.568567","LONGITUDE":"-96.501084","distance":0},{"ADDRESS":"1033 Hidden Oaks Dr","CITY":"Wills Point","STATE":"TX","ZIP":"75169","SOLD PRICE":48900,"LOT AREA":44867,"LOT ACREAGE":1.03,"PRICE PER ACRE":47476,"LATITUDE":"32.662363","LONGITUDE":"-96.102215","distance":0},{"ADDRESS":"7475 Star Trl","CITY":"Crandall","STATE":"TX","ZIP":"75114","SOLD PRICE":65000,"LOT AREA":44910,"LOT ACREAGE":1.03,"PRICE PER ACRE":63046,"LATITUDE":"32.6073819","LONGITUDE":"-96.4225161","distance":0},{"ADDRESS":"4565 FM 148","CITY":"Crandall","STATE":"TX","ZIP":"75114","SOLD PRICE":49900,"LOT AREA":45302,"LOT ACREAGE":1.04,"PRICE PER ACRE":47981,"LATITUDE":"32.655966","LONGITUDE":"-96.40066","distance":0},{"ADDRESS":"1070 Water Oak Dr","CITY":"Kaufman","STATE":"TX","ZIP":"75142","SOLD PRICE":14500,"LOT AREA":45302,"LOT ACREAGE":1.04,"PRICE PER ACRE":13942,"LATITUDE":"32.638523","LONGITUDE":"-96.267818","distance":0},{"ADDRESS":"1333 Canyon Lake Rd","CITY":"Wills Point","STATE":"TX","ZIP":"75169","SOLD PRICE":39500,"LOT AREA":45738,"LOT ACREAGE":1.05,"PRICE PER ACRE":37619,"LATITUDE":"32.660443","LONGITUDE":"-96.097418","distance":0},{"ADDRESS":"105 Oakmont Dr","CITY":"Mabank","STATE":"TX","ZIP":"75147","SOLD PRICE":45000,"LOT AREA":46609,"LOT ACREAGE":1.07,"PRICE PER ACRE":42056,"LATITUDE":"32.381719","LONGITUDE":"-96.133139","distance":0},{"ADDRESS":"1000 Encino Ct","CITY":"Wills Point","STATE":"TX","ZIP":"75169","SOLD PRICE":40000,"LOT AREA":48787,"LOT ACREAGE":1.12,"PRICE PER ACRE":35714,"LATITUDE":"32.65975","LONGITUDE":"-96.096622","distance":0},{"ADDRESS":"2111 Lake Crest Ln","CITY":"Wills Point","STATE":"TX","ZIP":"75169","SOLD PRICE":37000,"LOT AREA":48787,"LOT ACREAGE":1.12,"PRICE PER ACRE":33036,"LATITUDE":"32.663153","LONGITUDE":"-96.102788","distance":0},{"ADDRESS":"5123 Rabbit Trl","CITY":"Kemp","STATE":"TX","ZIP":"75143","SOLD PRICE":12000,"LOT AREA":49005,"LOT ACREAGE":1.13,"PRICE PER ACRE":10667,"LATITUDE":"32.4860914","LONGITUDE":"-96.2457304","distance":0},{"ADDRESS":"1077 Deerfield Dr","CITY":"Wills Point","STATE":"TX","ZIP":"75169","SOLD PRICE":39500,"LOT AREA":49223,"LOT ACREAGE":1.13,"PRICE PER ACRE":34956,"LATITUDE":"32.659407","LONGITUDE":"-96.099954","distance":0},{"ADDRESS":"9742 County Road 307","CITY":"Terrell","STATE":"TX","ZIP":"75161","SOLD PRICE":57000,"LOT AREA":49441,"LOT ACREAGE":1.14,"PRICE PER ACRE":50220,"LATITUDE":"32.70401","LONGITUDE":"-96.210278","distance":0},{"ADDRESS":"7167 MITCHELL","CITY":"Terrell","STATE":"TX","ZIP":"75160","SOLD PRICE":70000,"LOT AREA":50007,"LOT ACREAGE":1.15,"PRICE PER ACRE":60975,"LATITUDE":"32.6885932","LONGITUDE":"-96.3541636","distance":0},{"ADDRESS":"1033 Canyon Lake Rd","CITY":"Wills Point","STATE":"TX","ZIP":"75169","SOLD PRICE":37500,"LOT AREA":50094,"LOT ACREAGE":1.15,"PRICE PER ACRE":32609,"LATITUDE":"32.660976","LONGITUDE":"-96.091515","distance":0},{"ADDRESS":"7151 Fm Road 1390","CITY":"Scurry","STATE":"TX","ZIP":"75158","SOLD PRICE":44000,"LOT AREA":50312,"LOT ACREAGE":1.16,"PRICE PER ACRE":38095,"LATITUDE":"32.5464028","LONGITUDE":"-96.4156309","distance":0},{"ADDRESS":"1022 Deerfield Dr","CITY":"Wills Point","STATE":"TX","ZIP":"75169","SOLD PRICE":37000,"LOT AREA":50530,"LOT ACREAGE":1.16,"PRICE PER ACRE":31896,"LATITUDE":"32.660448","LONGITUDE":"-96.100706","distance":0},{"ADDRESS":"1044 Deerfield Dr","CITY":"Wills Point","STATE":"TX","ZIP":"75169","SOLD PRICE":35000,"LOT AREA":50530,"LOT ACREAGE":1.16,"PRICE PER ACRE":30172,"LATITUDE":"32.660021","LONGITUDE":"-96.100883","distance":0},{"ADDRESS":"0 FM ROAD 1388","CITY":"Kaufman","STATE":"TX","ZIP":"75142","SOLD PRICE":49900,"LOT AREA":50704,"LOT ACREAGE":1.16,"PRICE PER ACRE":42869,"LATITUDE":"32.567699","LONGITUDE":"-96.315898","distance":0},{"ADDRESS":"1099 Tawakoni Rd","CITY":"Wills Point","STATE":"TX","ZIP":"75169","SOLD PRICE":39000,"LOT AREA":51836,"LOT ACREAGE":1.19,"PRICE PER ACRE":32773,"LATITUDE":"32.660681","LONGITUDE":"-96.090787","distance":0},{"ADDRESS":"421 Sun Vly","CITY":"Mabank","STATE":"TX","ZIP":"75147","SOLD PRICE":425000,"LOT AREA":52272,"LOT ACREAGE":1.2,"PRICE PER ACRE":354167,"LATITUDE":"32.3627925","LONGITUDE":"-96.1483186","distance":0},{"ADDRESS":"449 Sun Vly","CITY":"Mabank","STATE":"TX","ZIP":"75147","SOLD PRICE":455000,"LOT AREA":52272,"LOT ACREAGE":1.2,"PRICE PER ACRE":379167,"LATITUDE":"32.3602595","LONGITUDE":"-96.1529068","distance":0},{"ADDRESS":"0 Smith Ln","CITY":"Combine","STATE":"TX","ZIP":"75159","SOLD PRICE":47500,"LOT AREA":52272,"LOT ACREAGE":1.2,"PRICE PER ACRE":39583,"LATITUDE":"32.597901","LONGITUDE":"-96.51647","distance":0},{"ADDRESS":"0 Star Trl","CITY":"Crandall","STATE":"TX","ZIP":"75114","SOLD PRICE":65000,"LOT AREA":52403,"LOT ACREAGE":1.2,"PRICE PER ACRE":54031,"LATITUDE":"32.609183","LONGITUDE":"-96.423711","distance":0},{"ADDRESS":"Emerald Ranch Ln","CITY":"Forney","STATE":"TX","ZIP":"75126","SOLD PRICE":99900,"LOT AREA":52708,"LOT ACREAGE":1.21,"PRICE PER ACRE":82561,"LATITUDE":"32.722581","LONGITUDE":"-96.394326","distance":0},{"ADDRESS":"127 Oakbend Trl","CITY":"Mabank","STATE":"TX","ZIP":"75147","SOLD PRICE":50000,"LOT AREA":53143,"LOT ACREAGE":1.22,"PRICE PER ACRE":40984,"LATITUDE":"32.3819","LONGITUDE":"-96.132903","distance":0},{"ADDRESS":"1333 Eagle Lake Dr","CITY":"Wills Point","STATE":"TX","ZIP":"75169","SOLD PRICE":42500,"LOT AREA":53143,"LOT ACREAGE":1.22,"PRICE PER ACRE":34836,"LATITUDE":"32.662387","LONGITUDE":"-96.094837","distance":0},{"ADDRESS":"1239 CR 4129","CITY":"Scurry","STATE":"TX","ZIP":"75158","SOLD PRICE":34900,"LOT AREA":55408,"LOT ACREAGE":1.27,"PRICE PER ACRE":27437,"LATITUDE":"32.429956","LONGITUDE":"-96.338442","distance":0},{"ADDRESS":"1355 Canyon Lake Rd","CITY":"Wills Point","STATE":"TX","ZIP":"75169","SOLD PRICE":49500,"LOT AREA":55757,"LOT ACREAGE":1.28,"PRICE PER ACRE":38672,"LATITUDE":"32.660296","LONGITUDE":"-96.097961","distance":0},{"ADDRESS":"0 FM 1392","CITY":"Terrell","STATE":"TX","ZIP":"75160","SOLD PRICE":74900,"LOT AREA":56715,"LOT ACREAGE":1.3,"PRICE PER ACRE":57527,"LATITUDE":"32.748023","LONGITUDE":"-96.342818","distance":0},{"ADDRESS":"1440 Shadow Lakes Dr","CITY":"Wills Point","STATE":"TX","ZIP":"75169","SOLD PRICE":39900,"LOT AREA":57064,"LOT ACREAGE":1.31,"PRICE PER ACRE":30458,"LATITUDE":"32.666937","LONGITUDE":"-96.097","distance":0},{"ADDRESS":"217 Deer Vly","CITY":"Mabank","STATE":"TX","ZIP":"75147","SOLD PRICE":540000,"LOT AREA":57499,"LOT ACREAGE":1.32,"PRICE PER ACRE":409092,"LATITUDE":"32.3670967","LONGITUDE":"-96.1421114","distance":0},{"ADDRESS":"108 Oakmont Dr","CITY":"Mabank","STATE":"TX","ZIP":"75147","SOLD PRICE":47500,"LOT AREA":57499,"LOT ACREAGE":1.32,"PRICE PER ACRE":35985,"LATITUDE":"32.366532","LONGITUDE":"-96.100806","distance":0},{"ADDRESS":"1132 Canyon Lake Rd","CITY":"Wills Point","STATE":"TX","ZIP":"75169","SOLD PRICE":45900,"LOT AREA":57499,"LOT ACREAGE":1.32,"PRICE PER ACRE":34773,"LATITUDE":"32.662501","LONGITUDE":"-96.0931109","distance":0},{"ADDRESS":"1188 Whirlaway Dr","CITY":"Terrell","STATE":"TX","ZIP":"75160","SOLD PRICE":89900,"LOT AREA":60156,"LOT ACREAGE":1.38,"PRICE PER ACRE":65098,"LATITUDE":"32.6821879","LONGITUDE":"-96.403137","distance":0},{"ADDRESS":"8791 SOUTHERN SHORE Ct","CITY":"Kemp","STATE":"TX","ZIP":"75143","SOLD PRICE":267900,"LOT AREA":60984,"LOT ACREAGE":1.4,"PRICE PER ACRE":191357,"LATITUDE":"32.375346","LONGITUDE":"-96.216606","distance":0},{"ADDRESS":"2133 Lake Crest Ln","CITY":"Wills Point","STATE":"TX","ZIP":"75169","SOLD PRICE":47000,"LOT AREA":62291,"LOT ACREAGE":1.43,"PRICE PER ACRE":32867,"LATITUDE":"32.663356","LONGITUDE":"-96.103343","distance":0},{"ADDRESS":"11399 Helms Trl","CITY":"Forney","STATE":"TX","ZIP":"75126","SOLD PRICE":125000,"LOT AREA":62596,"LOT ACREAGE":1.44,"PRICE PER ACRE":86986,"LATITUDE":"32.7173964","LONGITUDE":"-96.4107515","distance":0},{"ADDRESS":"2277 Canyon Lake Rd","CITY":"Wills Point","STATE":"TX","ZIP":"75169","SOLD PRICE":59500,"LOT AREA":63336,"LOT ACREAGE":1.45,"PRICE PER ACRE":40922,"LATITUDE":"32.671188","LONGITUDE":"-96.114703","distance":0},{"ADDRESS":"441 Sun Vly","CITY":"Mabank","STATE":"TX","ZIP":"75147","SOLD PRICE":375000,"LOT AREA":65340,"LOT ACREAGE":1.5,"PRICE PER ACRE":250000,"LATITUDE":"32.3608326","LONGITUDE":"-96.1514626","distance":0},{"ADDRESS":"8611 Maplewood Dr","CITY":"Terrell","STATE":"TX","ZIP":"75160","SOLD PRICE":99500,"LOT AREA":65340,"LOT ACREAGE":1.5,"PRICE PER ACRE":66333,"LATITUDE":"32.672336","LONGITUDE":"-96.378855","distance":0},{"ADDRESS":"12801 Whiterock Rd","CITY":"Mabank","STATE":"TX","ZIP":"75147","SOLD PRICE":12900,"LOT AREA":65645,"LOT ACREAGE":1.51,"PRICE PER ACRE":8560,"LATITUDE":"32.3859894","LONGITUDE":"-96.1271423","distance":0},{"ADDRESS":"140 Oakmont Dr","CITY":"Mabank","STATE":"TX","ZIP":"75147","SOLD PRICE":99900,"LOT AREA":67518,"LOT ACREAGE":1.55,"PRICE PER ACRE":64452,"LATITUDE":"32.381683","LONGITUDE":"-96.133161","distance":0},{"ADDRESS":"138 Oakmont Dr","CITY":"Mabank","STATE":"TX","ZIP":"75147","SOLD PRICE":99900,"LOT AREA":67518,"LOT ACREAGE":1.55,"PRICE PER ACRE":64452,"LATITUDE":"32.381728","LONGITUDE":"-96.133139","distance":0},{"ADDRESS":"0 3039","CITY":"Combine","STATE":"TX","ZIP":"75159","SOLD PRICE":82000,"LOT AREA":67605,"LOT ACREAGE":1.55,"PRICE PER ACRE":52835,"LATITUDE":"32.588468","LONGITUDE":"-96.508599","distance":0},{"ADDRESS":"215 Deer Valley Dr","CITY":"Mabank","STATE":"TX","ZIP":"75147","SOLD PRICE":575000,"LOT AREA":67954,"LOT ACREAGE":1.56,"PRICE PER ACRE":368588,"LATITUDE":"32.3673764","LONGITUDE":"-96.1418239","distance":0},{"ADDRESS":"0 Sleepy Hollow Rd","CITY":"Terrell","STATE":"TX","ZIP":"75161","SOLD PRICE":39900,"LOT AREA":68389,"LOT ACREAGE":1.57,"PRICE PER ACRE":25414,"LATITUDE":"32.71621","LONGITUDE":"-96.139421","distance":0},{"ADDRESS":"7909 County Rd 4076","CITY":"Scurry","STATE":"TX","ZIP":"75158","SOLD PRICE":40000,"LOT AREA":69117,"LOT ACREAGE":1.59,"PRICE PER ACRE":25209,"LATITUDE":"32.425237","LONGITUDE":"-96.379385","distance":0},{"ADDRESS":"Co Road 152","CITY":"Kaufman","STATE":"TX","ZIP":"75142","SOLD PRICE":89900,"LOT AREA":71133,"LOT ACREAGE":1.63,"PRICE PER ACRE":55052,"LATITUDE":"32.548871","LONGITUDE":"-96.313964","distance":0},{"ADDRESS":"0 Byron Rd","CITY":"Kaufman","STATE":"TX","ZIP":"75142","SOLD PRICE":40000,"LOT AREA":72310,"LOT ACREAGE":1.66,"PRICE PER ACRE":24096,"LATITUDE":"32.584488","LONGITUDE":"-96.27362","distance":0},{"ADDRESS":"1110 Canyon Lake Rd","CITY":"Wills Point","STATE":"TX","ZIP":"75169","SOLD PRICE":44000,"LOT AREA":72310,"LOT ACREAGE":1.66,"PRICE PER ACRE":26506,"LATITUDE":"32.662711","LONGITUDE":"-96.092418","distance":0},{"ADDRESS":"213 Deer Valley Dr","CITY":"Mabank","STATE":"TX","ZIP":"75147","SOLD PRICE":635000,"LOT AREA":73616,"LOT ACREAGE":1.69,"PRICE PER ACRE":375742,"LATITUDE":"32.3676181","LONGITUDE":"-96.1414533","distance":0},{"ADDRESS":"","CITY":"Terrell","STATE":"TX","ZIP":"75160","SOLD PRICE":60000,"LOT AREA":74052,"LOT ACREAGE":1.7,"PRICE PER ACRE":35294,"LATITUDE":"32.74224","LONGITUDE":"-96.270792","distance":0},{"ADDRESS":"1645 Canyon Lake Rd","CITY":"Wills Point","STATE":"TX","ZIP":"75169","SOLD PRICE":57000,"LOT AREA":78844,"LOT ACREAGE":1.81,"PRICE PER ACRE":31492,"LATITUDE":"32.6615541","LONGITUDE":"-96.1068928","distance":0},{"ADDRESS":"FM 148","CITY":"Grays Prairie","STATE":"TX","ZIP":"75158","SOLD PRICE":50000,"LOT AREA":78844,"LOT ACREAGE":1.81,"PRICE PER ACRE":27624,"LATITUDE":"32.519049","LONGITUDE":"-96.381289","distance":0},{"ADDRESS":"240 River Bend Trl","CITY":"Combine","STATE":"TX","ZIP":"75159","SOLD PRICE":80000,"LOT AREA":79976,"LOT ACREAGE":1.84,"PRICE PER ACRE":43573,"LATITUDE":"32.592432","LONGITUDE":"-96.496769","distance":0},{"ADDRESS":"111 Oakmont Dr","CITY":"Mabank","STATE":"TX","ZIP":"75147","SOLD PRICE":52000,"LOT AREA":80150,"LOT ACREAGE":1.84,"PRICE PER ACRE":28261,"LATITUDE":"32.381755","LONGITUDE":"-96.133129","distance":0},{"ADDRESS":"6721 FM 1390","CITY":"Kaufman","STATE":"TX","ZIP":"75142","SOLD PRICE":35000,"LOT AREA":82546,"LOT ACREAGE":1.89,"PRICE PER ACRE":18470,"LATITUDE":"32.556419","LONGITUDE":"-96.40591","distance":0},{"ADDRESS":"7600 Fall Creek Rd","CITY":"Terrell","STATE":"TX","ZIP":"75160","SOLD PRICE":94000,"LOT AREA":83200,"LOT ACREAGE":1.91,"PRICE PER ACRE":49214,"LATITUDE":"32.6792915","LONGITUDE":"-96.3777958","distance":0},{"ADDRESS":"248 Still St E","CITY":"Kemp","STATE":"TX","ZIP":"75143","SOLD PRICE":25000,"LOT AREA":84506,"LOT ACREAGE":1.94,"PRICE PER ACRE":12887,"LATITUDE":"32.4435657","LONGITUDE":"-96.2248369","distance":0},{"ADDRESS":"0 Country Ln","CITY":"Kaufman","STATE":"TX","ZIP":"75142","SOLD PRICE":50000,"LOT AREA":85639,"LOT ACREAGE":1.97,"PRICE PER ACRE":25432,"LATITUDE":"32.648162","LONGITUDE":"-96.260941","distance":0},{"ADDRESS":"4001 County Road 121","CITY":"Kaufman","STATE":"TX","ZIP":"75142","SOLD PRICE":40000,"LOT AREA":87120,"LOT ACREAGE":2,"PRICE PER ACRE":20000,"LATITUDE":"32.609473","LONGITUDE":"-96.135993","distance":0},{"ADDRESS":"1150 Amber Way","CITY":"Rockwall","STATE":"TX","ZIP":"75032","SOLD PRICE":150000,"LOT AREA":87120,"LOT ACREAGE":2,"PRICE PER ACRE":75000,"LATITUDE":"32.8142447","LONGITUDE":"-96.319515","distance":0},{"ADDRESS":"7588 Fm Road 2727","CITY":"Kaufman","STATE":"TX","ZIP":"75142","SOLD PRICE":65000,"LOT AREA":87120,"LOT ACREAGE":2,"PRICE PER ACRE":32500,"LATITUDE":"32.63016","LONGITUDE":"-96.192068","distance":0},{"ADDRESS":"1222 Topaz Ln","CITY":"Kaufman","STATE":"TX","ZIP":"75142","SOLD PRICE":71000,"LOT AREA":87120,"LOT ACREAGE":2,"PRICE PER ACRE":35500,"LATITUDE":"32.6035371","LONGITUDE":"-96.1305196","distance":0},{"ADDRESS":"0 Hwy 274","CITY":"Kemp","STATE":"TX","ZIP":"75143","SOLD PRICE":25000,"LOT AREA":87120,"LOT ACREAGE":2,"PRICE PER ACRE":12500,"LATITUDE":"32.372172","LONGITUDE":"-96.240974","distance":0},{"ADDRESS":"0 Klassic K Farm","CITY":"Kaufman","STATE":"TX","ZIP":"75142","SOLD PRICE":50000,"LOT AREA":87120,"LOT ACREAGE":2,"PRICE PER ACRE":25000,"LATITUDE":"32.645419","LONGITUDE":"-96.321239","distance":0},{"ADDRESS":"13052 Shadow Brook Ct","CITY":"Terrell","STATE":"TX","ZIP":"75160","SOLD PRICE":59900,"LOT AREA":87120,"LOT ACREAGE":2,"PRICE PER ACRE":29950,"LATITUDE":"32.79911","LONGITUDE":"-96.341318","distance":0},{"ADDRESS":"1126 Sundown Dr","CITY":"Kaufman","STATE":"TX","ZIP":"75142","SOLD PRICE":30000,"LOT AREA":87120,"LOT ACREAGE":2,"PRICE PER ACRE":15000,"LATITUDE":"32.5765946","LONGITUDE":"-96.213965","distance":0},{"ADDRESS":"0 Terrace Dr","CITY":"Kemp","STATE":"TX","ZIP":"75143","SOLD PRICE":22000,"LOT AREA":89516,"LOT ACREAGE":2.06,"PRICE PER ACRE":10706,"LATITUDE":"32.392146","LONGITUDE":"-96.267632","distance":0},{"ADDRESS":"1701 Canyon Lake Rd","CITY":"Wills Point","STATE":"TX","ZIP":"75169","SOLD PRICE":65000,"LOT AREA":90169,"LOT ACREAGE":2.07,"PRICE PER ACRE":31401,"LATITUDE":"32.6621585","LONGITUDE":"-96.1085398","distance":0},{"ADDRESS":"15417 Flud Rd","CITY":"Kemp","STATE":"TX","ZIP":"75143","SOLD PRICE":119000,"LOT AREA":90213,"LOT ACREAGE":2.07,"PRICE PER ACRE":57460,"LATITUDE":"32.423844","LONGITUDE":"-96.197953","distance":0},{"ADDRESS":"1222 Shadow Lakes Dr","CITY":"Wills Point","STATE":"TX","ZIP":"75169","SOLD PRICE":58900,"LOT AREA":90605,"LOT ACREAGE":2.08,"PRICE PER ACRE":28317,"LATITUDE":"32.662232","LONGITUDE":"-96.096104","distance":0},{"ADDRESS":"2335 Canyon Lake Rd","CITY":"Wills Point","STATE":"TX","ZIP":"75169","SOLD PRICE":69500,"LOT AREA":92913,"LOT ACREAGE":2.13,"PRICE PER ACRE":32583,"LATITUDE":"32.6717308","LONGITUDE":"-96.1155151","distance":0},{"ADDRESS":"1110 Eagle Lake Dr","CITY":"Wills Point","STATE":"TX","ZIP":"75169","SOLD PRICE":54500,"LOT AREA":94090,"LOT ACREAGE":2.16,"PRICE PER ACRE":25231,"LATITUDE":"32.65996","LONGITUDE":"-96.092257","distance":0},{"ADDRESS":"1055 Winding Wood Trl","CITY":"Scurry","STATE":"TX","ZIP":"75158","SOLD PRICE":76500,"LOT AREA":94612,"LOT ACREAGE":2.17,"PRICE PER ACRE":35221,"LATITUDE":"32.510684","LONGITUDE":"-96.349942","distance":0},{"ADDRESS":"413 Sun Vly","CITY":"Mabank","STATE":"TX","ZIP":"75147","SOLD PRICE":850000,"LOT AREA":94961,"LOT ACREAGE":2.18,"PRICE PER ACRE":389907,"LATITUDE":"32.3634064","LONGITUDE":"-96.1469089","distance":0},{"ADDRESS":"4776 Cheryl Ln","CITY":"Kaufman","STATE":"TX","ZIP":"75142","SOLD PRICE":55000,"LOT AREA":99360,"LOT ACREAGE":2.28,"PRICE PER ACRE":24112,"LATITUDE":"32.633991","LONGITUDE":"-96.230191","distance":0},{"ADDRESS":"2055 Eastfield Dr","CITY":"Wills Point","STATE":"TX","ZIP":"75169","SOLD PRICE":40000,"LOT AREA":100188,"LOT ACREAGE":2.3,"PRICE PER ACRE":17391,"LATITUDE":"32.6601583","LONGITUDE":"-96.104366","distance":0},{"ADDRESS":"16437 Four Oaks Dr","CITY":"Kemp","STATE":"TX","ZIP":"75143","SOLD PRICE":25000,"LOT AREA":101800,"LOT ACREAGE":2.34,"PRICE PER ACRE":10697,"LATITUDE":"32.4061274","LONGITUDE":"-96.1711376","distance":0},{"ADDRESS":"9252 County Road 216","CITY":"Talty","STATE":"TX","ZIP":"75160","SOLD PRICE":89900,"LOT AREA":103455,"LOT ACREAGE":2.38,"PRICE PER ACRE":37853,"LATITUDE":"32.6940046","LONGITUDE":"-96.3895406","distance":0},{"ADDRESS":"2033 Parkview Dr","CITY":"Wills Point","STATE":"TX","ZIP":"75169","SOLD PRICE":67000,"LOT AREA":106286,"LOT ACREAGE":2.44,"PRICE PER ACRE":27459,"LATITUDE":"32.6618705","LONGITUDE":"-96.110679","distance":0},{"ADDRESS":"1077 Winding Wood Trl","CITY":"Scurry","STATE":"TX","ZIP":"75158","SOLD PRICE":85950,"LOT AREA":106853,"LOT ACREAGE":2.45,"PRICE PER ACRE":35039,"LATITUDE":"32.510228","LONGITUDE":"-96.349296","distance":0},{"ADDRESS":"6619 Fm Rd 3396 Co Rd 4049","CITY":"Kemp","STATE":"TX","ZIP":"75143","SOLD PRICE":25000,"LOT AREA":107593,"LOT ACREAGE":2.47,"PRICE PER ACRE":10121,"LATITUDE":"32.3628276","LONGITUDE":"-96.3177336","distance":0},{"ADDRESS":"0 CO ROAD 324","CITY":"Poetry","STATE":"TX","ZIP":"75160","SOLD PRICE":99900,"LOT AREA":108029,"LOT ACREAGE":2.48,"PRICE PER ACRE":40282,"LATITUDE":"32.834517","LONGITUDE":"-96.230261","distance":0},{"ADDRESS":"18325 Valley View Rd","CITY":"Forney","STATE":"TX","ZIP":"75126","SOLD PRICE":87500,"LOT AREA":108900,"LOT ACREAGE":2.5,"PRICE PER ACRE":35000,"LATITUDE":"32.813584","LONGITUDE":"-96.4189154","distance":0},{"ADDRESS":"4550 N Fm Road 148","CITY":"Crandall","STATE":"TX","ZIP":"75114","SOLD PRICE":97900,"LOT AREA":109597,"LOT ACREAGE":2.52,"PRICE PER ACRE":38911,"LATITUDE":"32.5929121","LONGITUDE":"-96.4284553","distance":0},{"ADDRESS":"0 Kandy Ln","CITY":"Kaufman","STATE":"TX","ZIP":"75142","SOLD PRICE":80000,"LOT AREA":111993,"LOT ACREAGE":2.57,"PRICE PER ACRE":31116,"LATITUDE":"32.633044","LONGITUDE":"-96.315416","distance":0},{"ADDRESS":"10322 Wild Rose Cir","CITY":"Forney","STATE":"TX","ZIP":"75126","SOLD PRICE":120000,"LOT AREA":112385,"LOT ACREAGE":2.58,"PRICE PER ACRE":46512,"LATITUDE":"32.7896829","LONGITUDE":"-96.4298303","distance":0},{"ADDRESS":"6755 Rolling Heights Cir","CITY":"Kaufman","STATE":"TX","ZIP":"75142","SOLD PRICE":79000,"LOT AREA":119354,"LOT ACREAGE":2.74,"PRICE PER ACRE":28832,"LATITUDE":"32.6258644","LONGITUDE":"-96.1329405","distance":0},{"ADDRESS":"307 Sun Vly","CITY":"Mabank","STATE":"TX","ZIP":"75147","SOLD PRICE":625000,"LOT AREA":124146,"LOT ACREAGE":2.85,"PRICE PER ACRE":219298,"LATITUDE":"32.3650115","LONGITUDE":"-96.143681","distance":0},{"ADDRESS":"303 Sun Vly","CITY":"Mabank","STATE":"TX","ZIP":"75147","SOLD PRICE":575000,"LOT AREA":124146,"LOT ACREAGE":2.85,"PRICE PER ACRE":201754,"LATITUDE":"32.3650046","LONGITUDE":"-96.1421414","distance":0},{"ADDRESS":"12567 Saddle Club Dr","CITY":"Heath","STATE":"TX","ZIP":"75126","SOLD PRICE":160000,"LOT AREA":124582,"LOT ACREAGE":2.86,"PRICE PER ACRE":55944,"LATITUDE":"32.810703","LONGITUDE":"-96.457859","distance":0},{"ADDRESS":"0 Sue Ann Ln","CITY":"Terrell","STATE":"TX","ZIP":"75161","SOLD PRICE":49900,"LOT AREA":127195,"LOT ACREAGE":2.92,"PRICE PER ACRE":17089,"LATITUDE":"32.659465","LONGITUDE":"-96.192964","distance":0},{"ADDRESS":"0 County Road 4091","CITY":"Scurry","STATE":"TX","ZIP":"75158","SOLD PRICE":108000,"LOT AREA":130680,"LOT ACREAGE":3,"PRICE PER ACRE":36000,"LATITUDE":"32.521922","LONGITUDE":"-96.380891","distance":0},{"ADDRESS":"18300 Co Road 4001","CITY":"Mabank","STATE":"TX","ZIP":"75147","SOLD PRICE":30000,"LOT AREA":130680,"LOT ACREAGE":3,"PRICE PER ACRE":10000,"LATITUDE":"32.3709575","LONGITUDE":"-96.0858711","distance":0},{"ADDRESS":"0 S Fm Road 740","CITY":"Forney","STATE":"TX","ZIP":"75126","SOLD PRICE":170000,"LOT AREA":130680,"LOT ACREAGE":3,"PRICE PER ACRE":56667,"LATITUDE":"32.690178","LONGITUDE":"-96.513564","distance":0},{"ADDRESS":"0 Timber Trl","CITY":"Scurry","STATE":"TX","ZIP":"75158","SOLD PRICE":95000,"LOT AREA":130680,"LOT ACREAGE":3,"PRICE PER ACRE":31667,"LATITUDE":"32.513533","LONGITUDE":"-96.367647","distance":0},{"ADDRESS":"County Road 4091","CITY":"Scurry","STATE":"TX","ZIP":"75158","SOLD PRICE":75000,"LOT AREA":131551,"LOT ACREAGE":3.02,"PRICE PER ACRE":24834,"LATITUDE":"32.517665","LONGITUDE":"-96.383555","distance":0},{"ADDRESS":"6230 Mountain View Dr","CITY":"Crandall","STATE":"TX","ZIP":"75114","SOLD PRICE":125000,"LOT AREA":134600,"LOT ACREAGE":3.09,"PRICE PER ACRE":40453,"LATITUDE":"32.6721989","LONGITUDE":"-96.4284326","distance":0},{"ADDRESS":"0 Meadow Way","CITY":"Terrell","STATE":"TX","ZIP":"75160","SOLD PRICE":99900,"LOT AREA":134600,"LOT ACREAGE":3.09,"PRICE PER ACRE":32330,"LATITUDE":"32.6721","LONGITUDE":"-96.300231","distance":0},{"ADDRESS":"10638 County Road 313","CITY":"Terrell","STATE":"TX","ZIP":"75161","SOLD PRICE":68900,"LOT AREA":136212,"LOT ACREAGE":3.13,"PRICE PER ACRE":22034,"LATITUDE":"32.7052879","LONGITUDE":"-96.1528457","distance":0},{"ADDRESS":"CR 313 (Lot 2)","CITY":"Terrell","STATE":"TX","ZIP":"75161","SOLD PRICE":68900,"LOT AREA":138042,"LOT ACREAGE":3.17,"PRICE PER ACRE":21742,"LATITUDE":"32.711837","LONGITUDE":"-96.161881","distance":0},{"ADDRESS":"0 FM 429","CITY":"Quinlan","STATE":"TX","ZIP":"75474","SOLD PRICE":52000,"LOT AREA":138434,"LOT ACREAGE":3.18,"PRICE PER ACRE":16362,"LATITUDE":"32.823594","LONGITUDE":"-96.089418","distance":0},{"ADDRESS":"2188 Westview Dr","CITY":"Wills Point","STATE":"TX","ZIP":"75169","SOLD PRICE":139900,"LOT AREA":139828,"LOT ACREAGE":3.21,"PRICE PER ACRE":43582,"LATITUDE":"32.6647041","LONGITUDE":"-96.1070326","distance":0},{"ADDRESS":"18120 County Road 4052","CITY":"Kemp","STATE":"TX","ZIP":"75143","SOLD PRICE":39900,"LOT AREA":156990,"LOT ACREAGE":3.6,"PRICE PER ACRE":11071,"LATITUDE":"32.3836643","LONGITUDE":"-96.2767904","distance":0},{"ADDRESS":"0 Wild Rose Cir","CITY":"Forney","STATE":"TX","ZIP":"75126","SOLD PRICE":109000,"LOT AREA":157252,"LOT ACREAGE":3.61,"PRICE PER ACRE":30194,"LATITUDE":"32.790453","LONGITUDE":"-96.429732","distance":0},{"ADDRESS":"15700 Wiser Rd","CITY":"Forney","STATE":"TX","ZIP":"75126","SOLD PRICE":125000,"LOT AREA":165528,"LOT ACREAGE":3.8,"PRICE PER ACRE":32895,"LATITUDE":"32.7029602","LONGITUDE":"-96.5067985","distance":0},{"ADDRESS":"0 Fm Road 1388","CITY":"Oak Grove","STATE":"TX","ZIP":"75142","SOLD PRICE":129900,"LOT AREA":166399,"LOT ACREAGE":3.82,"PRICE PER ACRE":34005,"LATITUDE":"32.567699","LONGITUDE":"-96.315898","distance":0},{"ADDRESS":"0 Fogleman Rd","CITY":"Kemp","STATE":"TX","ZIP":"75143","SOLD PRICE":44900,"LOT AREA":167575,"LOT ACREAGE":3.85,"PRICE PER ACRE":11671,"LATITUDE":"32.381633","LONGITUDE":"-96.250263","distance":0},{"ADDRESS":"5475 Fogleman Rd","CITY":"Kemp","STATE":"TX","ZIP":"75143","SOLD PRICE":140000,"LOT AREA":169187,"LOT ACREAGE":3.88,"PRICE PER ACRE":36045,"LATITUDE":"32.3820374","LONGITUDE":"-96.2447431","distance":0},{"ADDRESS":"1737 County Road 139","CITY":"Terrell","STATE":"TX","ZIP":"75161","SOLD PRICE":89900,"LOT AREA":174240,"LOT ACREAGE":4,"PRICE PER ACRE":22475,"LATITUDE":"32.735729","LONGITUDE":"-96.167869","distance":0},{"ADDRESS":"18903 Fm 986","CITY":"Terrell","STATE":"TX","ZIP":"75160","SOLD PRICE":80000,"LOT AREA":174240,"LOT ACREAGE":4,"PRICE PER ACRE":20000,"LATITUDE":"32.8256458","LONGITUDE":"-96.2463953","distance":0},{"ADDRESS":"17709 Terrace Dr","CITY":"Kemp","STATE":"TX","ZIP":"75143","SOLD PRICE":50000,"LOT AREA":176070,"LOT ACREAGE":4.04,"PRICE PER ACRE":12370,"LATITUDE":"32.391143","LONGITUDE":"-96.266408","distance":0},{"ADDRESS":"5870 County Road 237a","CITY":"Terrell","STATE":"TX","ZIP":"75160","SOLD PRICE":88800,"LOT AREA":181210,"LOT ACREAGE":4.16,"PRICE PER ACRE":21346,"LATITUDE":"32.7405473","LONGITUDE":"-96.3391054","distance":0},{"ADDRESS":"286 N Fm Road 429","CITY":"Terrell","STATE":"TX","ZIP":"75160","SOLD PRICE":125000,"LOT AREA":189922,"LOT ACREAGE":4.36,"PRICE PER ACRE":28670,"LATITUDE":"32.736485","LONGITUDE":"-96.251355","distance":0},{"ADDRESS":"0 Allen","CITY":"Terrell","STATE":"TX","ZIP":"75160","SOLD PRICE":169000,"LOT AREA":189922,"LOT ACREAGE":4.36,"PRICE PER ACRE":38761,"LATITUDE":"32.740762","LONGITUDE":"-96.29172","distance":0},{"ADDRESS":"0 Kings Creek Dr","CITY":"Kaufman","STATE":"TX","ZIP":"75142","SOLD PRICE":129000,"LOT AREA":204732,"LOT ACREAGE":4.7,"PRICE PER ACRE":27447,"LATITUDE":"32.628615","LONGITUDE":"-96.314004","distance":0},{"ADDRESS":"11081 County Road 314","CITY":"Terrell","STATE":"TX","ZIP":"75161","SOLD PRICE":60000,"LOT AREA":204732,"LOT ACREAGE":4.7,"PRICE PER ACRE":12766,"LATITUDE":"32.7051322","LONGITUDE":"-96.1041059","distance":0},{"ADDRESS":"14137 County Road 4031","CITY":"Kemp","STATE":"TX","ZIP":"75143","SOLD PRICE":39900,"LOT AREA":207694,"LOT ACREAGE":4.77,"PRICE PER ACRE":8368,"LATITUDE":"32.4449686","LONGITUDE":"-96.2407142","distance":0},{"ADDRESS":"7813 County Road 271","CITY":"Terrell","STATE":"TX","ZIP":"75160","SOLD PRICE":167650,"LOT AREA":208652,"LOT ACREAGE":4.79,"PRICE PER ACRE":35000,"LATITUDE":"32.676196","LONGITUDE":"-96.362868","distance":0},{"ADDRESS":"Dickerson Rd","CITY":"Kaufman","STATE":"TX","ZIP":"75142","SOLD PRICE":90000,"LOT AREA":217800,"LOT ACREAGE":5,"PRICE PER ACRE":18000,"LATITUDE":"32.576454","LONGITUDE":"-96.250012","distance":0},{"ADDRESS":"0 High Country Ln","CITY":"Forney","STATE":"TX","ZIP":"75126","SOLD PRICE":200000,"LOT AREA":217800,"LOT ACREAGE":5,"PRICE PER ACRE":40000,"LATITUDE":"32.7021362","LONGITUDE":"-96.4637395","distance":0},{"ADDRESS":"0 Fm Road 2451","CITY":"Scurry","STATE":"TX","ZIP":"75158","SOLD PRICE":60000,"LOT AREA":217800,"LOT ACREAGE":5,"PRICE PER ACRE":12000,"LATITUDE":"32.464573","LONGITUDE":"-96.350117","distance":0},{"ADDRESS":"5112 Cheryl Ln","CITY":"Kaufman","STATE":"TX","ZIP":"75142","SOLD PRICE":65000,"LOT AREA":217800,"LOT ACREAGE":5,"PRICE PER ACRE":13000,"LATITUDE":"32.636785","LONGITUDE":"-96.225453","distance":0},{"ADDRESS":"0 CO Road 313","CITY":"Terrell","STATE":"TX","ZIP":"75160","SOLD PRICE":50000,"LOT AREA":217800,"LOT ACREAGE":5,"PRICE PER ACRE":10000,"LATITUDE":"32.711484","LONGITUDE":"-96.16017","distance":0},{"ADDRESS":"0 Sandy Ridge Rd","CITY":"Scurry","STATE":"TX","ZIP":"75158","SOLD PRICE":70000,"LOT AREA":217800,"LOT ACREAGE":5,"PRICE PER ACRE":14000,"LATITUDE":"32.433172","LONGITUDE":"-96.324997","distance":0},{"ADDRESS":"2099 Canyon Lake Dr","CITY":"Wills Point","STATE":"TX","ZIP":"75169","SOLD PRICE":116500,"LOT AREA":220283,"LOT ACREAGE":5.06,"PRICE PER ACRE":23037,"LATITUDE":"32.6660095","LONGITUDE":"-96.1164805","distance":0},{"ADDRESS":"Hickory Tree Ln","CITY":"Wills Point","STATE":"TX","ZIP":"75169","SOLD PRICE":50000,"LOT AREA":221720,"LOT ACREAGE":5.09,"PRICE PER ACRE":9823,"LATITUDE":"32.621657","LONGITUDE":"-96.093279","distance":0},{"ADDRESS":"0 Hwy 90","CITY":"Mabank","STATE":"TX","ZIP":"75147","SOLD PRICE":69900,"LOT AREA":231739,"LOT ACREAGE":5.32,"PRICE PER ACRE":13139,"LATITUDE":"32.430794","LONGITUDE":"-96.111491","distance":0},{"ADDRESS":"0 County Road 4001","CITY":"Mabank","STATE":"TX","ZIP":"75147","SOLD PRICE":48780,"LOT AREA":236008,"LOT ACREAGE":5.42,"PRICE PER ACRE":9003,"LATITUDE":"32.378868","LONGITUDE":"-96.080586","distance":0},{"ADDRESS":"5 CO ROAD 4059","CITY":"Kemp","STATE":"TX","ZIP":"75143","SOLD PRICE":44000,"LOT AREA":250034,"LOT ACREAGE":5.74,"PRICE PER ACRE":7666,"LATITUDE":"32.433013","LONGITUDE":"-96.311557","distance":0},{"ADDRESS":"7685 Pam Ln","CITY":"Terrell","STATE":"TX","ZIP":"75161","SOLD PRICE":139900,"LOT AREA":268765,"LOT ACREAGE":6.17,"PRICE PER ACRE":22674,"LATITUDE":"32.658723","LONGITUDE":"-96.214487","distance":0},{"ADDRESS":"1211 Tawakoni Ln","CITY":"Wills Point","STATE":"TX","ZIP":"75169","SOLD PRICE":62000,"LOT AREA":272381,"LOT ACREAGE":6.25,"PRICE PER ACRE":9915,"LATITUDE":"32.662188","LONGITUDE":"-96.0879198","distance":0},{"ADDRESS":"15287 Hanging Tree Rd","CITY":"Terrell","STATE":"TX","ZIP":"75161","SOLD PRICE":59422,"LOT AREA":272468,"LOT ACREAGE":6.26,"PRICE PER ACRE":9500,"LATITUDE":"32.784153","LONGITUDE":"-96.155542","distance":0},{"ADDRESS":"2650 County Road 134","CITY":"Kaufman","STATE":"TX","ZIP":"75142","SOLD PRICE":135000,"LOT AREA":275212,"LOT ACREAGE":6.32,"PRICE PER ACRE":21368,"LATITUDE":"32.6062031","LONGITUDE":"-96.173145","distance":0},{"ADDRESS":"0 S 3rd St","CITY":"Scurry","STATE":"TX","ZIP":"75158","SOLD PRICE":65000,"LOT AREA":283140,"LOT ACREAGE":6.5,"PRICE PER ACRE":10000,"LATITUDE":"32.420828","LONGITUDE":"-96.34774","distance":0},{"ADDRESS":"0 Star Trl","CITY":"Crandall","STATE":"TX","ZIP":"75114","SOLD PRICE":120000,"LOT AREA":304920,"LOT ACREAGE":7,"PRICE PER ACRE":17143,"LATITUDE":"32.609539","LONGITUDE":"-96.424286","distance":0},{"ADDRESS":"14980 Hyde Away Ln","CITY":"Mabank","STATE":"TX","ZIP":"75147","SOLD PRICE":73000,"LOT AREA":317988,"LOT ACREAGE":7.3,"PRICE PER ACRE":10000,"LATITUDE":"32.43859","LONGITUDE":"-96.0935471","distance":0},{"ADDRESS":"6825 County Road 283","CITY":"Terrell","STATE":"TX","ZIP":"75160","SOLD PRICE":90000,"LOT AREA":319164,"LOT ACREAGE":7.33,"PRICE PER ACRE":12283,"LATITUDE":"32.6340105","LONGITUDE":"-96.3512545","distance":0},{"ADDRESS":"6986 Fm 2451","CITY":"Scurry","STATE":"TX","ZIP":"75158","SOLD PRICE":140000,"LOT AREA":332973,"LOT ACREAGE":7.64,"PRICE PER ACRE":18315,"LATITUDE":"32.464632","LONGITUDE":"-96.3618738","distance":0},{"ADDRESS":"9142 County Road 114","CITY":"Kaufman","STATE":"TX","ZIP":"75142","SOLD PRICE":85000,"LOT AREA":344560,"LOT ACREAGE":7.91,"PRICE PER ACRE":10746,"LATITUDE":"32.513556","LONGITUDE":"-96.142267","distance":0},{"ADDRESS":"County Rd 2430","CITY":"Quinlan","STATE":"TX","ZIP":"75474","SOLD PRICE":175000,"LOT AREA":370260,"LOT ACREAGE":8.5,"PRICE PER ACRE":20588,"LATITUDE":"32.838714","LONGITUDE":"-96.095032","distance":0},{"ADDRESS":"0 Hwy 34","CITY":"Terrell","STATE":"TX","ZIP":"75160","SOLD PRICE":250000,"LOT AREA":377230,"LOT ACREAGE":8.66,"PRICE PER ACRE":28868,"LATITUDE":"32.747373","LONGITUDE":"-96.266641","distance":0},{"ADDRESS":"Co Road 148","CITY":"Scurry","STATE":"TX","ZIP":"75158","SOLD PRICE":119000,"LOT AREA":435600,"LOT ACREAGE":10,"PRICE PER ACRE":11900,"LATITUDE":"32.517241","LONGITUDE":"-96.3792472","distance":0},{"ADDRESS":"16660 County Road 4052","CITY":"Kemp","STATE":"TX","ZIP":"75143","SOLD PRICE":75000,"LOT AREA":435600,"LOT ACREAGE":10,"PRICE PER ACRE":7500,"LATITUDE":"32.400098","LONGITUDE":"-96.265743","distance":0},{"ADDRESS":"0 County Road 4125","CITY":"Scurry","STATE":"TX","ZIP":"75158","SOLD PRICE":110000,"LOT AREA":435600,"LOT ACREAGE":10,"PRICE PER ACRE":11000,"LATITUDE":"32.440225","LONGITUDE":"-96.316505","distance":0},{"ADDRESS":"14597 County Road 117","CITY":"Mabank","STATE":"TX","ZIP":"75147","SOLD PRICE":90000,"LOT AREA":435600,"LOT ACREAGE":10,"PRICE PER ACRE":9000,"LATITUDE":"32.500243","LONGITUDE":"-96.094065","distance":0},{"ADDRESS":"County Road 114","CITY":"Kaufman","STATE":"TX","ZIP":"75142","SOLD PRICE":119900,"LOT AREA":435600,"LOT ACREAGE":10,"PRICE PER ACRE":11990,"LATITUDE":"32.518451","LONGITUDE":"-96.141821","distance":0},{"ADDRESS":"0 Fm Road 2451","CITY":"Scurry","STATE":"TX","ZIP":"75158","SOLD PRICE":98500,"LOT AREA":435600,"LOT ACREAGE":10,"PRICE PER ACRE":9850,"LATITUDE":"32.464573","LONGITUDE":"-96.350117","distance":0},{"ADDRESS":"0 CO RD 279","CITY":"Oak Ridge","STATE":"TX","ZIP":"75160","SOLD PRICE":149900,"LOT AREA":435600,"LOT ACREAGE":10,"PRICE PER ACRE":14990,"LATITUDE":"32.661069","LONGITUDE":"-96.264716","distance":0},{"ADDRESS":"0 Fm Rd 1836","CITY":"Kaufman","STATE":"TX","ZIP":"75142","SOLD PRICE":119900,"LOT AREA":435600,"LOT ACREAGE":10,"PRICE PER ACRE":11990,"LATITUDE":"32.576876","LONGITUDE":"-96.293163","distance":0},{"ADDRESS":"15671 County Road 341","CITY":"Terrell","STATE":"TX","ZIP":"75161","SOLD PRICE":125000,"LOT AREA":442526,"LOT ACREAGE":10.16,"PRICE PER ACRE":12304,"LATITUDE":"32.79056","LONGITUDE":"-96.1189747","distance":0},{"ADDRESS":"0 COUNTY ROAD 126","CITY":"Terrell","STATE":"TX","ZIP":"75160","SOLD PRICE":150000,"LOT AREA":444530,"LOT ACREAGE":10.21,"PRICE PER ACRE":14699,"LATITUDE":"32.661142","LONGITUDE":"-96.130167","distance":0},{"ADDRESS":"15662 County Road 341","CITY":"Terrell","STATE":"TX","ZIP":"75161","SOLD PRICE":119900,"LOT AREA":446098,"LOT ACREAGE":10.24,"PRICE PER ACRE":11708,"LATITUDE":"32.7911211","LONGITUDE":"-96.1182196","distance":0},{"ADDRESS":"6791 Co Road 4042","CITY":"Kemp","STATE":"TX","ZIP":"75143","SOLD PRICE":140000,"LOT AREA":446490,"LOT ACREAGE":10.25,"PRICE PER ACRE":13659,"LATITUDE":"32.3705054","LONGITUDE":"-96.2280452","distance":0},{"ADDRESS":"2100 Lake Crest Ln","CITY":"Wills Point","STATE":"TX","ZIP":"75169","SOLD PRICE":150000,"LOT AREA":452153,"LOT ACREAGE":10.38,"PRICE PER ACRE":14451,"LATITUDE":"32.6648174","LONGITUDE":"-96.1029661","distance":0},{"ADDRESS":"13375 Fm Road 2860","CITY":"Kaufman","STATE":"TX","ZIP":"75142","SOLD PRICE":110000,"LOT AREA":471319,"LOT ACREAGE":10.82,"PRICE PER ACRE":10166,"LATITUDE":"32.493503","LONGITUDE":"-96.263716","distance":0},{"ADDRESS":"TBD","CITY":"Forney","STATE":"TX","ZIP":"75142","SOLD PRICE":135000,"LOT AREA":471319,"LOT ACREAGE":10.82,"PRICE PER ACRE":12477,"LATITUDE":"32.777372","LONGITUDE":"-96.447574","distance":0},{"ADDRESS":"13500 Hwy 274","CITY":"Kemp","STATE":"TX","ZIP":"75143","SOLD PRICE":120000,"LOT AREA":493535,"LOT ACREAGE":11.33,"PRICE PER ACRE":10591,"LATITUDE":"32.4242764","LONGITUDE":"-96.2356058","distance":0},{"ADDRESS":"8119 Samuels Rd","CITY":"Terrell","STATE":"TX","ZIP":"75160","SOLD PRICE":160000,"LOT AREA":503074,"LOT ACREAGE":11.55,"PRICE PER ACRE":13854,"LATITUDE":"32.7904709","LONGITUDE":"-96.3641034","distance":0},{"ADDRESS":"10325 County Road 304 BLANK","CITY":"Terrell","STATE":"TX","ZIP":"75160","SOLD PRICE":145900,"LOT AREA":543498,"LOT ACREAGE":12.48,"PRICE PER ACRE":11694,"LATITUDE":"32.705975","LONGITUDE":"-96.306944","distance":0},{"ADDRESS":"113A County Road 4074","CITY":"Scurry","STATE":"TX","ZIP":"75158","SOLD PRICE":150000,"LOT AREA":609840,"LOT ACREAGE":14,"PRICE PER ACRE":10714,"LATITUDE":"32.401306","LONGITUDE":"-96.4147018","distance":0},{"ADDRESS":"County Road 4096","CITY":"Kaufman","STATE":"TX","ZIP":"75142","SOLD PRICE":152250,"LOT AREA":644557,"LOT ACREAGE":14.8,"PRICE PER ACRE":10289,"LATITUDE":"32.53398","LONGITUDE":"-96.419095","distance":0},{"ADDRESS":"14261 County Road 4015","CITY":"Mabank","STATE":"TX","ZIP":"75147","SOLD PRICE":189000,"LOT AREA":676487,"LOT ACREAGE":15.53,"PRICE PER ACRE":12170,"LATITUDE":"32.4766539","LONGITUDE":"-96.0983231","distance":0},{"ADDRESS":"County Road 133","CITY":"Kaufman","STATE":"TX","ZIP":"75142","SOLD PRICE":210960,"LOT AREA":765785,"LOT ACREAGE":17.58,"PRICE PER ACRE":12000,"LATITUDE":"32.628132","LONGITUDE":"-96.181737","distance":0},{"ADDRESS":"0 Co Road 4106","CITY":"Kaufman","STATE":"TX","ZIP":"75142","SOLD PRICE":142800,"LOT AREA":777546,"LOT ACREAGE":17.85,"PRICE PER ACRE":8000,"LATITUDE":"32.596259","LONGITUDE":"-96.3883","distance":0},{"ADDRESS":"0 Co Road 305","CITY":"Terrell","STATE":"TX","ZIP":"75160","SOLD PRICE":229000,"LOT AREA":784080,"LOT ACREAGE":18,"PRICE PER ACRE":12722,"LATITUDE":"32.701522","LONGITUDE":"-96.317324","distance":0},{"ADDRESS":"15910 County Road 4009","CITY":"Mabank","STATE":"TX","ZIP":"75147","SOLD PRICE":199500,"LOT AREA":790788,"LOT ACREAGE":18.15,"PRICE PER ACRE":10989,"LATITUDE":"32.4177488","LONGITUDE":"-96.089383","distance":0},{"ADDRESS":"11103 Fm 1895","CITY":"Kemp","STATE":"TX","ZIP":"75143","SOLD PRICE":130000,"LOT AREA":827640,"LOT ACREAGE":19,"PRICE PER ACRE":6842,"LATITUDE":"32.48613","LONGITUDE":"-96.206038","distance":0},{"ADDRESS":"County Road 4074","CITY":"Scurry","STATE":"TX","ZIP":"75158","SOLD PRICE":189900,"LOT AREA":827640,"LOT ACREAGE":19,"PRICE PER ACRE":9995,"LATITUDE":"32.404234","LONGITUDE":"-96.388358","distance":0},{"ADDRESS":"13287 County Road 236","CITY":"Terrell","STATE":"TX","ZIP":"75160","SOLD PRICE":200000,"LOT AREA":862488,"LOT ACREAGE":19.8,"PRICE PER ACRE":10101,"LATITUDE":"32.7527795","LONGITUDE":"-96.3368358","distance":0},{"ADDRESS":"CR 4042","CITY":"Kemp","STATE":"TX","ZIP":"75143","SOLD PRICE":80000,"LOT AREA":871200,"LOT ACREAGE":20,"PRICE PER ACRE":4000,"LATITUDE":"32.36995","LONGITUDE":"-96.233071","distance":0},{"ADDRESS":"8723 Fm Road 2728","CITY":"Terrell","STATE":"TX","ZIP":"75160","SOLD PRICE":210000,"LOT AREA":925302,"LOT ACREAGE":21.24,"PRICE PER ACRE":9886,"LATITUDE":"32.6866741","LONGITUDE":"-96.1960731","distance":0},{"ADDRESS":"0 Valley View Rd","CITY":"Forney","STATE":"TX","ZIP":"75126","SOLD PRICE":345000,"LOT AREA":947256,"LOT ACREAGE":21.75,"PRICE PER ACRE":15865,"LATITUDE":"32.800363","LONGITUDE":"-96.429873","distance":0},{"ADDRESS":"0 Fm Road 741","CITY":"Forney","STATE":"TX","ZIP":"75126","SOLD PRICE":275000,"LOT AREA":958320,"LOT ACREAGE":22,"PRICE PER ACRE":12500,"LATITUDE":"32.727345","LONGITUDE":"-96.45724","distance":0},{"ADDRESS":"3952 Fm 2578","CITY":"Terrell","STATE":"TX","ZIP":"75160","SOLD PRICE":199900,"LOT AREA":983193,"LOT ACREAGE":22.57,"PRICE PER ACRE":8856,"LATITUDE":"32.631701","LONGITUDE":"-96.358313","distance":0},{"ADDRESS":"0 Co Rd 4057","CITY":"Kemp","STATE":"TX","ZIP":"75143","SOLD PRICE":146137,"LOT AREA":1060686,"LOT ACREAGE":24.35,"PRICE PER ACRE":6002,"LATITUDE":"32.408363","LONGITUDE":"-96.299731","distance":0},{"ADDRESS":"0 Valley View Rd","CITY":"Forney","STATE":"TX","ZIP":"75126","SOLD PRICE":750000,"LOT AREA":1089000,"LOT ACREAGE":25,"PRICE PER ACRE":30000,"LATITUDE":"32.800177","LONGITUDE":"-96.432354","distance":0},{"ADDRESS":"11399 County Road 4019","CITY":"Kemp","STATE":"TX","ZIP":"75143","SOLD PRICE":185000,"LOT AREA":1097712,"LOT ACREAGE":25.2,"PRICE PER ACRE":7341,"LATITUDE":"32.406247","LONGITUDE":"-96.152101","distance":0},{"ADDRESS":"0 Co Road 4084","CITY":"Scurry","STATE":"TX","ZIP":"75158","SOLD PRICE":172000,"LOT AREA":1132560,"LOT ACREAGE":26,"PRICE PER ACRE":6615,"LATITUDE":"32.467475","LONGITUDE":"-96.389151","distance":0},{"ADDRESS":"0 County Road 4072","CITY":"Kemp","STATE":"TX","ZIP":"75143","SOLD PRICE":149000,"LOT AREA":1132560,"LOT ACREAGE":26,"PRICE PER ACRE":5731,"LATITUDE":"32.392713","LONGITUDE":"-96.381683","distance":0},{"ADDRESS":"15481 CR 4015","CITY":"Mabank","STATE":"TX","ZIP":"75147","SOLD PRICE":162000,"LOT AREA":1136916,"LOT ACREAGE":26.1,"PRICE PER ACRE":6207,"LATITUDE":"32.464311","LONGITUDE":"-96.087447","distance":0},{"ADDRESS":"8304 S Fm Road 148","CITY":"Scurry","STATE":"TX","ZIP":"75158","SOLD PRICE":349900,"LOT AREA":1225256,"LOT ACREAGE":28.13,"PRICE PER ACRE":12440,"LATITUDE":"32.5152991","LONGITUDE":"-96.3807683","distance":0},{"ADDRESS":"0 Griffith Ave","CITY":"Terrell","STATE":"TX","ZIP":"75160","SOLD PRICE":340000,"LOT AREA":1380460,"LOT ACREAGE":31.69,"PRICE PER ACRE":10729,"LATITUDE":"32.774547","LONGITUDE":"-96.306347","distance":0},{"ADDRESS":"15419 County Road 341","CITY":"Terrell","STATE":"TX","ZIP":"75161","SOLD PRICE":340000,"LOT AREA":1611720,"LOT ACREAGE":37,"PRICE PER ACRE":9189,"LATITUDE":"32.7791188","LONGITUDE":"-96.1185885","distance":0},{"ADDRESS":"Hiram Rd","CITY":"Terrell","STATE":"TX","ZIP":"75161","SOLD PRICE":550000,"LOT AREA":1780079,"LOT ACREAGE":40.86,"PRICE PER ACRE":13459,"LATITUDE":"32.661942","LONGITUDE":"-96.142336","distance":0},{"ADDRESS":"11650 County Road 4019","CITY":"Kemp","STATE":"TX","ZIP":"75143","SOLD PRICE":289900,"LOT AREA":2293870,"LOT ACREAGE":52.66,"PRICE PER ACRE":5505,"LATITUDE":"32.404938","LONGITUDE":"-96.144667","distance":0},{"ADDRESS":"0 County Road 114","CITY":"Kaufman","STATE":"TX","ZIP":"75142","SOLD PRICE":275000,"LOT AREA":3007034,"LOT ACREAGE":69.03,"PRICE PER ACRE":3984,"LATITUDE":"32.503242","LONGITUDE":"-96.141016","distance":0},{"ADDRESS":"0 Co Road 4022","CITY":"Mabank","STATE":"TX","ZIP":"75143","SOLD PRICE":2390000,"LOT AREA":4033220,"LOT ACREAGE":92.59,"PRICE PER ACRE":25813,"LATITUDE":"32.395439","LONGITUDE":"-96.171794","distance":0}]